OBJECT_NAME,OBJECT_ID,EPOCH,MEAN_MOTION,ECCENTRICITY,INCLINATION,RA_OF_ASC_NODE,ARG_OF_PERICENTER,MEAN_ANOMALY,EPHEMERIS_TYPE,CLASSIFICATION_TYPE,NORAD_CAT_ID,ELEMENT_SET_NO,REV_AT_EPOCH,BSTAR,MEAN_MOTION_DOT,MEAN_MOTION_DDOT
IRIDIUM 138,2017-083B,2026-06-17T04:14:47.141664,14.34217806,.0002323,86.3978,321.7150,87.2118,272.9343,0,U,43071,999,44413,.36051E-4,.121E-5,0
IRIDIUM 116,2017-083C,2026-06-17T03:29:07.118592,14.34217713,.0001976,86.3963,322.0187,98.8967,261.2452,0,U,43072,999,44416,-.32752E-5,.11E-6,0
IRIDIUM 130,2017-083D,2026-06-17T04:23:54.952224,14.34218651,.0001949,86.3971,322.2781,92.5239,267.6180,0,U,43073,999,44411,.32176E-4,.11E-5,0
IRIDIUM 151,2017-083E,2026-06-17T03:47:23.196768,14.34217382,.0002045,86.3961,322.0714,93.0820,267.0610,0,U,43074,999,44413,-.89868E-5,-.5E-7,0
IRIDIUM 134,2017-083F,2026-06-17T03:01:43.180608,14.34217182,.0001992,86.3963,322.0927,91.6696,268.4728,0,U,43075,999,44409,-.22642E-4,-.44E-6,0
IRIDIUM 137,2017-083G,2026-06-17T03:19:59.149920,14.34217659,.0002155,86.3964,322.1802,104.5259,255.6176,0,U,43076,999,44416,-.21212E-5,.14E-6,0
IRIDIUM 141,2017-083H,2026-06-17T03:10:51.126816,14.34217866,.0002209,86.3962,322.0132,90.8389,269.3060,0,U,43077,999,44416,.30374E-5,.28E-6,0
IRIDIUM 153,2017-083J,2026-06-16T21:00:35.438688,14.34217584,.0002144,86.3957,290.6013,89.8143,270.3298,0,U,43078,999,44523,-.19687E-5,.14E-6,0
IRIDIUM 131,2017-083K,2026-06-16T21:51:11.047392,14.34217123,.0002201,86.3969,322.2919,91.6693,268.4755,0,U,43079,999,44406,.22048E-4,.82E-6,0
IRIDIUM 144,2018-030A,2026-06-16T21:09:43.354656,14.34216701,.0002096,86.3958,290.5274,97.3678,262.7756,0,U,43249,999,43009,.50588E-4,.161E-5,0
IRIDIUM 149,2018-030B,2026-06-16T21:18:51.470208,14.34217253,.0002152,86.3954,290.4921,94.0864,266.0578,0,U,43250,999,43011,-.12792E-4,-.16E-6,0
IRIDIUM 157,2018-030C,2026-06-16T20:05:47.446944,14.34217309,.0002077,86.3956,290.5665,94.1746,265.9687,0,U,43251,999,43008,-.15029E-4,-.22E-6,0
IRIDIUM 140,2018-030D,2026-06-17T01:34:35.438880,14.34217390,.0002033,86.3955,290.4836,93.8182,266.3246,0,U,43252,999,43017,-.77883E-5,-.2E-7,0
IRIDIUM 145,2018-030E,2026-06-17T01:16:19.416000,14.34217466,.0001998,86.3959,290.4610,101.1367,259.0053,0,U,43253,999,43010,.43721E-5,.32E-6,0
IRIDIUM 146,2018-030F,2026-06-16T21:27:59.298048,14.34218427,.0002122,86.3958,290.5395,96.7677,263.3761,0,U,43254,999,43009,.25777E-4,.92E-6,0
IRIDIUM 148,2018-030G,2026-06-17T01:43:43.480128,14.34217518,.0002258,86.3960,290.5084,96.2380,263.9073,0,U,43255,999,43015,-.81035E-6,.18E-6,0
IRIDIUM 142,2018-030H,2026-06-16T09:53:51.424800,14.34217412,.00020896,86.3955,290.6732,98.7561,261.3872,0,U,43256,999,43002,.1739414E-5,.25E-6,0
IRIDIUM 150,2018-030J,2026-06-17T01:52:51.439296,14.34217611,.0002153,86.3959,290.5110,93.8751,266.2691,0,U,43257,999,43014,.36462E-5,.3E-6,0
IRIDIUM 143,2018-030K,2026-06-16T20:24:03.418848,14.34217249,.0001975,86.3959,290.6992,96.6988,263.4433,0,U,43258,999,43004,-.14369E-4,-.2E-6,0
IRIDIUM 161,2018-047C,2026-06-17T00:43:40.765152,14.43278348,.0002591,86.4482,88.5366,84.5475,275.6022,0,U,43478,999,42511,.72877E-4,.265E-5,0
IRIDIUM 152,2018-047D,2026-06-17T00:46:10.335648,14.34216977,.0002356,86.3957,88.3972,82.9552,277.1912,0,U,43479,999,42246,.51168E-4,.163E-5,0
IRIDIUM 147,2018-047E,2026-06-17T00:55:18.280128,14.34217512,.0002032,86.3959,88.3996,85.6127,274.5301,0,U,43480,999,42246,-.18456E-5,.15E-6,0
IRIDIUM 110,2018-047F,2026-06-17T01:04:26.383584,14.34217170,.0002568,86.3961,88.4888,82.1529,277.9958,0,U,43481,999,42245,.1663E-4,.66E-6,0
IRIDIUM 162,2018-047G,2026-06-17T00:34:37.083648,14.43281575,.000227,86.4481,88.4305,82.4607,277.6852,0,U,43482,999,42510,.7695E-4,.279E-5,0
IRIDIUM 160,2018-061A,2026-06-17T01:26:54.473280,14.34217980,.0002271,86.3963,56.8506,85.7346,274.4109,0,U,43569,999,41335,.15145E-4,.62E-6,0
IRIDIUM 166,2018-061B,2026-06-17T02:03:26.478432,14.34217524,.0002009,86.3959,56.7902,86.5927,273.5499,0,U,43570,999,41338,-.55393E-5,.4E-7,0
IRIDIUM 158,2018-061C,2026-06-17T01:17:46.438944,14.34218053,.0002186,86.3961,56.8136,82.5424,277.6020,0,U,43571,999,41334,.20703E-4,.78E-6,0
IRIDIUM 165,2018-061D,2026-06-17T01:54:18.427680,14.34217495,.0002067,86.3963,56.8494,86.6738,273.4694,0,U,43572,999,41337,.23265E-4,.85E-6,0
IRIDIUM 155,2018-061E,2026-06-16T23:19:02.457408,14.34217598,.0002003,86.3957,56.7633,82.4559,277.6864,0,U,43573,999,41332,-.51047E-6,.18E-6,0
IRIDIUM 154,2018-061F,2026-06-17T02:12:34.288992,14.34216433,.0002128,86.3961,56.8465,87.3073,272.8367,0,U,43574,999,41339,.2294E-4,.84E-6,0
IRIDIUM 163,2018-061G,2026-06-17T01:45:10.234368,14.34216383,.0002253,86.3959,56.7699,83.5752,276.5701,0,U,43575,999,41336,.93784E-5,.46E-6,0
