IRIDIUM 138             
1 43071U 17083B   26168.17693451  .00000121  00000+0  36051-4 0  9995
2 43071  86.3978 321.7150 0002323  87.2118 272.9343 14.34217806444136
IRIDIUM 116             
1 43072U 17083C   26168.14522128  .00000011  00000+0 -32752-5 0  9999
2 43072  86.3963 322.0187 0001976  98.8967 261.2452 14.34217713444160
IRIDIUM 130             
1 43073U 17083D   26168.18327491  .00000110  00000+0  32176-4 0  9998
2 43073  86.3971 322.2781 0001949  92.5239 267.6180 14.34218651444110
IRIDIUM 151             
1 43074U 17083E   26168.15790737 -.00000005  00000+0 -89868-5 0  9999
2 43074  86.3961 322.0714 0002045  93.0820 267.0610 14.34217382444138
IRIDIUM 134             
1 43075U 17083F   26168.12619422 -.00000044  00000+0 -22642-4 0  9997
2 43075  86.3963 322.0927 0001992  91.6696 268.4728 14.34217182444090
IRIDIUM 137             
1 43076U 17083G   26168.13887905  .00000014  00000+0 -21212-5 0  9991
2 43076  86.3964 322.1802 0002155 104.5259 255.6176 14.34217659444168
IRIDIUM 141             
1 43077U 17083H   26168.13253619  .00000028  00000+0  30374-5 0  9994
2 43077  86.3962 322.0132 0002209  90.8389 269.3060 14.34217866444167
IRIDIUM 153             
1 43078U 17083J   26167.87541017  .00000014  00000+0 -19687-5 0  9997
2 43078  86.3957 290.6013 0002144  89.8143 270.3298 14.34217584445235
IRIDIUM 131             
1 43079U 17083K   26167.91054453  .00000082  00000+0  22048-4 0  9994
2 43079  86.3969 322.2919 0002201  91.6693 268.4755 14.34217123444066
IRIDIUM 144             
1 43249U 18030A   26167.88175179  .00000161  00000+0  50588-4 0  9999
2 43249  86.3958 290.5274 0002096  97.3678 262.7756 14.34216701430099
IRIDIUM 149             
1 43250U 18030B   26167.88809572 -.00000016  00000+0 -12792-4 0  9998
2 43250  86.3954 290.4921 0002152  94.0864 266.0578 14.34217253430114
IRIDIUM 157             
1 43251U 18030C   26167.83735471 -.00000022  00000+0 -15029-4 0  9993
2 43251  86.3956 290.5665 0002077  94.1746 265.9687 14.34217309430086
IRIDIUM 140             
1 43252U 18030D   26168.06568795 -.00000002  00000+0 -77883-5 0  9998
2 43252  86.3955 290.4836 0002033  93.8182 266.3246 14.34217390430173
IRIDIUM 145             
1 43253U 18030E   26168.05300250  .00000032  00000+0  43721-5 0  9993
2 43253  86.3959 290.4610 0001998 101.1367 259.0053 14.34217466430107
IRIDIUM 146             
1 43254U 18030F   26167.89443632  .00000092  00000+0  25777-4 0  9993
2 43254  86.3958 290.5395 0002122  96.7677 263.3761 14.34218427430091
IRIDIUM 148             
1 43255U 18030G   26168.07203102  .00000018  00000+0 -81035-6 0  9991
2 43255  86.3960 290.5084 0002258  96.2380 263.9073 14.34217518430155
IRIDIUM 142             
1 43256U 18030H   26167.41240075  .00000025  00000+0  17394-5 0  9992
2 43256  86.3955 290.6732 0002089  98.7561 261.3872 14.34217412430029
IRIDIUM 150             
1 43257U 18030J   26168.07837314  .00000030  00000+0  36462-5 0  9997
2 43257  86.3959 290.5110 0002153  93.8751 266.2691 14.34217611430149
IRIDIUM 143             
1 43258U 18030K   26167.85003957 -.00000020  00000+0 -14369-4 0  9993
2 43258  86.3959 290.6992 0001975  96.6988 263.4433 14.34217249430042
IRIDIUM 161             
1 43478U 18047C   26168.03033293  .00000265  00000+0  72877-4 0  9999
2 43478  86.4482  88.5366 0002591  84.5475 275.6022 14.43278348425117
IRIDIUM 152             
1 43479U 18047D   26168.03206407  .00000163  00000+0  51168-4 0  9996
2 43479  86.3957  88.3972 0002356  82.9552 277.1912 14.34216977422462
IRIDIUM 147             
1 43480U 18047E   26168.03840602  .00000015  00000+0 -18456-5 0  9990
2 43480  86.3959  88.3996 0002032  85.6127 274.5301 14.34217512422460
IRIDIUM 110             
1 43481U 18047F   26168.04474981  .00000066  00000+0  16630-4 0  9991
2 43481  86.3961  88.4888 0002568  82.1529 277.9958 14.34217170422451
IRIDIUM 162             
1 43482U 18047G   26168.02404032  .00000279  00000+0  76950-4 0  9997
2 43482  86.4481  88.4305 0002270  82.4607 277.6852 14.43281575425109
IRIDIUM 160             
1 43569U 18061A   26168.06035270  .00000062  00000+0  15145-4 0  9996
2 43569  86.3963  56.8506 0002271  85.7346 274.4109 14.34217980413351
IRIDIUM 166             
1 43570U 18061B   26168.08572313  .00000004  00000+0 -55393-5 0  9991
2 43570  86.3959  56.7902 0002009  86.5927 273.5499 14.34217524413389
IRIDIUM 158             
1 43571U 18061C   26168.05400971  .00000078  00000+0  20703-4 0  9995
2 43571  86.3961  56.8136 0002186  82.5424 277.6020 14.34218053413346
IRIDIUM 165             
1 43572U 18061D   26168.07937995  .00000085  00000+0  23265-4 0  9993
2 43572  86.3963  56.8494 0002067  86.6738 273.4694 14.34217495413370
IRIDIUM 155             
1 43573U 18061E   26167.97155622  .00000018  00000+0 -51047-6 0  9999
2 43573  86.3957  56.7633 0002003  82.4559 277.6864 14.34217598413327
IRIDIUM 154             
1 43574U 18061F   26168.09206353  .00000084  00000+0  22940-4 0  9992
2 43574  86.3961  56.8465 0002128  87.3073 272.8367 14.34216433413399
IRIDIUM 163             
1 43575U 18061G   26168.07303512  .00000046  00000+0  93784-5 0  9999
2 43575  86.3959  56.7699 0002253  83.5752 276.5701 14.34216383413360
